OBJECT_NAME,OBJECT_ID,EPOCH,MEAN_MOTION,ECCENTRICITY,INCLINATION,RA_OF_ASC_NODE,ARG_OF_PERICENTER,MEAN_ANOMALY,EPHEMERIS_TYPE,CLASSIFICATION_TYPE,NORAD_CAT_ID,ELEMENT_SET_NO,REV_AT_EPOCH,BSTAR,MEAN_MOTION_DOT,MEAN_MOTION_DDOT
SPAINSAT NG I,2025-021A,2026-07-13T11:53:18.424896,1.00271360,.0000197,0.0150,49.4669,192.7004,256.5149,0,U,62852,999,425,0,.148E-5,0
QZS-6 (MICHIBIKI-6),2025-023A,2026-07-13T10:28:23.702880,1.00267398,.0001781,0.0132,343.7815,148.6981,46.3835,0,U,62876,999,521,0,-.235E-5,0
ZHONGXING-10R,2025-036A,2026-07-13T12:16:45.830784,1.00273001,.0004149,0.0103,271.0853,236.5433,78.4573,0,U,63075,999,522,0,-.356E-5,0
TJS-15,2025-045A,2026-07-12T19:04:53.800032,1.00269974,.0003365,0.3038,85.6382,294.9720,290.6614,0,U,63157,999,501,0,-.265E-5,0
TIANLIAN 2-04,2025-062A,2026-07-13T15:33:14.491296,1.00270205,.0031602,4.3086,274.0593,9.3988,321.3904,0,U,63361,999,486,0,-.134E-5,0
TJS-16,2025-064A,2026-07-12T17:07:07.005792,1.00270809,.0002494,1.1614,81.2993,290.2536,336.4481,0,U,63397,999,464,0,-.106E-5,0
TJS-17,2025-073A,2026-07-12T16:57:41.108256,1.00270456,.0001,1.1274,82.4745,302.8111,324.2376,0,U,63524,999,454,0,-.71E-6,0
TIANLIAN 2-05,2025-084A,2026-07-13T11:50:56.154336,1.00270577,.0002561,4.3865,279.5335,153.6687,56.2628,0,U,63662,999,464,0,.125E-5,0
TJS-19,2025-097A,2026-07-12T19:34:18.099264,1.00267046,.000396,3.2447,317.8543,245.4199,162.2041,0,U,63924,999,440,0,-.273E-5,0
CHINASAT 3B,2025-106A,2026-07-13T12:32:57.446304,1.00271851,.0003918,0.0237,142.6506,2.4021,141.9078,0,U,64062,999,432,0,-.49E-6,0
SXM-10,2025-122A,2026-07-13T11:17:38.747040,1.00271858,.0001824,0.0152,34.5784,324.7820,345.2422,0,U,64290,999,394,0,-.21E-6,0
COSMOS 2589,2025-131A,2026-07-12T13:41:30.919200,1.00272485,.0001601,0.0332,118.2803,84.3172,31.2303,0,U,64467,999,381,0,-.29E-5,0
CHINASAT 9C,2025-132A,2026-07-13T12:11:31.333920,1.00267731,.0002887,0.0152,57.4571,58.0003,91.0210,0,U,64470,999,441,0,0,0
MTG-S1,2025-143A,2026-07-13T08:19:49.197216,1.00273104,.0003501,0.5853,344.6575,262.0105,169.0934,0,U,64723,999,368,0,-.1E-6,0
DROR 1,2025-148A,2026-07-13T08:18:41.804352,1.00271595,.0001975,0.0491,262.2841,132.8950,16.7142,0,U,64784,999,355,0,-.37E-6,0
SHIYAN-29,2025-196A,2026-07-12T23:09:51.813792,1.00276908,.00134135,28.8488,18.2102,177.8791,177.5073,0,U,65486,999,313,0,-.284E-5,0
NUSANTARA LIMA (NUSANTARA 5),2025-205A,2026-07-13T05:26:36.057408,1.00270259,.000046,0.0048,108.0133,92.2195,285.3677,0,U,65588,999,298,0,-.36E-5,0
TJS-20,2025-238A,2026-07-12T22:21:46.568736,1.00274129,.00042822,5.4136,299.4489,181.2781,207.9699,0,U,66142,999,259,0,.3E-6,0
CMS-03 (GSAT-7R),2025-249B,2026-07-13T12:06:17.180064,1.00271158,.0001445,0.0316,271.8871,167.1350,107.9006,0,U,66311,999,261,0,-.8E-6,0
VIASAT-3 F2,2025-261A,2026-07-13T11:22:43.857408,1.00270985,.000074,0.0059,252.2572,334.9101,155.8962,0,U,66454,999,305,0,-.237E-5,0
SHIJIAN-28 (SJ-28),2025-277A,2026-07-13T12:18:30.664224,1.00267655,.0001181,4.4720,271.7150,22.6051,298.5185,0,U,66549,999,241,0,-.359E-5,0
TJS-22,2025-290A,2026-07-12T19:22:51.874176,1.00269698,.0002696,1.4677,286.9079,319.1976,41.7959,0,U,66990,999,228,0,-.5E-7,0
TJS-23,2025-306A,2026-07-12T12:46:34.164768,1.00274777,.0004982,5.5312,297.3541,192.6213,167.6210,0,U,67226,999,214,0,.26E-6,0
FENGYUN 4C,2025-312A,2026-07-13T12:23:07.721376,1.00269020,.0000653,0.0381,174.1513,45.0000,31.0120,0,U,67246,999,204,0,-.327E-5,0
SHIJIAN-29A (SJ-29A),2025-315A,2026-07-13T04:57:21.725280,1.00272245,.00048506,3.4617,94.4870,52.9383,291.1535,0,U,67302,999,187,0,-.73E-6,0
SHIJIAN-29B (SJ-29B),2025-315C,2026-07-13T04:34:51.667392,1.00272531,.0004938,3.4606,94.4795,54.1739,284.3305,0,U,67403,999,194,0,-.74E-6,0
ELEKTRO-L 5,2026-028A,2026-07-12T23:32:12.769440,1.00271957,.0002054,0.2103,323.5750,175.8596,220.5701,0,U,67756,999,151,0,-.99E-6,0
JAM-E JAM 1,2026-028B,2026-07-13T05:04:15.697920,1.00272753,.0001736,0.2102,311.8978,321.4560,127.8153,0,U,67757,999,138,0,.154E-5,0
ECHOSTAR 25,2026-045A,2026-07-13T12:29:38.799744,1.00272192,.0001817,0.0258,61.3823,49.7665,257.6767,0,U,68126,999,125,0,0,0
TJS-24,2026-116A,2026-07-13T13:26:13.416000,1.00270163,.0000376,0.0734,95.3326,129.4474,358.5082,0,U,69235,999,49,0,-.235E-5,0
